QIANFAN-33              
1 61566U 24185Q   25224.59199852  .00000223  00000+0  15216-3 0  9991
2 61566  88.9770  92.4465 0007093   5.3734 354.7518 13.96410795 52113
QIANFAN-34              
1 61567U 24185R   25224.62993328  .00000382  00000+0  24106-3 0  9990
2 61567  88.9748  92.1669 0006643  19.2319 340.9111 14.02163484 52243
QIANFAN-35              
1 61568U 24185S   25224.61406064  .00000569  00000+0  22512-3 0  9992
2 61568  88.9771  91.2343 0006137 348.0441  12.0607 14.27669123 52757
QIANFAN-36              
1 61569U 24185T   25224.57928354  .00000037  00000+0  35952-4 0  9992
2 61569  88.9760  93.7888 0007694  47.2021 312.9779 13.55545984 51375
QIANFAN-37              
1 62238U 24232B   25224.56329772  .00000049  00000+0  57221-4 0  9993
2 62238  88.9925  53.6799 0002647  90.1376 270.0078 13.50965973 82673
QIANFAN-38              
1 62239U 24232C   25224.58816179  .00000034  00000+0  34718-4 0  9998
2 62239  88.9931  53.5848 0014391 180.6542 179.4592 13.50963607 82736
QIANFAN-39              
1 62240U 24232D   25224.54645607  .00000148  00000+0  56567-4 0  9994
2 62240  88.9931  51.2974 0018246 115.4059 244.9025 14.25232125 83989
QIANFAN-40              
1 62241U 24232E   25224.54695020  .00000041  00000+0  45027-4 0  9990
2 62241  88.9959  53.1391 0013162 188.2767 171.8169 13.50960312 83092
